{
  "norad_id": 58063,
  "name": "STARLINK-30585",
  "history": [
    {
      "epoch": "2026-05-04T21:15:50.628096Z",
      "apogee_km": 483.87436477975916,
      "perigee_km": 482.2619815640637,
      "latitude_deg": -9.848376064598908e-06,
      "longitude_deg": -111.98097072156956,
      "height_km": 482.94829483275737,
      "semi_major_axis_km": 6861.205173171911,
      "eccentricity": 0.0001175,
      "inclination_deg": 43.0043,
      "raan_deg": 69.7489,
      "arg_perigee_deg": 262.6489,
      "mean_anomaly_deg": 97.4229,
      "mean_motion_rev_day": 15.27573629
    },
    {
      "epoch": "2026-05-05T20:48:10.601568Z",
      "apogee_km": 483.4958057445738,
      "perigee_km": 482.5517100242896,
      "latitude_deg": 3.583296592047877e-06,
      "longitude_deg": -111.57039046185383,
      "height_km": 482.88132209485303,
      "semi_major_axis_km": 6861.160757884431,
      "eccentricity": 6.88e-05,
      "inclination_deg": 42.999,
      "raan_deg": 64.2094,
      "arg_perigee_deg": 260.0431,
      "mean_anomaly_deg": 100.0343,
      "mean_motion_rev_day": 15.27588462
    },
    {
      "epoch": "2026-05-06T12:29:45.858624Z",
      "apogee_km": 483.8425088706308,
      "perigee_km": 482.3405859416034,
      "latitude_deg": -1.6673506164315236e-05,
      "longitude_deg": 8.69838721525722,
      "height_km": 482.8664967666568,
      "semi_major_axis_km": 6861.228547406116,
      "eccentricity": 0.00010945,
      "inclination_deg": 43.0046,
      "raan_deg": 60.5196,
      "arg_perigee_deg": 270.1533,
      "mean_anomaly_deg": 89.9193,
      "mean_motion_rev_day": 15.27565823
    },
    {
      "epoch": "2026-05-07T12:02:05.940096Z",
      "apogee_km": 483.8786442367682,
      "perigee_km": 482.17844741451245,
      "latitude_deg": 5.156106002597341e-07,
      "longitude_deg": 9.107720436002024,
      "height_km": 482.74765685910614,
      "semi_major_axis_km": 6861.16554582564,
      "eccentricity": 0.0001239,
      "inclination_deg": 43.0035,
      "raan_deg": 54.9793,
      "arg_perigee_deg": 273.9021,
      "mean_anomaly_deg": 86.1689,
      "mean_motion_rev_day": 15.27586863
    },
    {
      "epoch": "2026-05-08T19:25:13.405152Z",
      "apogee_km": 483.7264935475623,
      "perigee_km": 482.27330475232156,
      "latitude_deg": 2.190080239238581e-05,
      "longitude_deg": -110.34721802777275,
      "height_km": 482.832874368001,
      "semi_major_axis_km": 6861.136899149941,
      "eccentricity": 0.0001059,
      "inclination_deg": 43.0036,
      "raan_deg": 47.5944,
      "arg_perigee_deg": 265.5657,
      "mean_anomaly_deg": 94.5074,
      "mean_motion_rev_day": 15.2759643
    },
    {
      "epoch": "2026-05-09T11:06:47.437920Z",
      "apogee_km": 483.7862117643972,
      "perigee_km": 482.28910345410713,
      "latitude_deg": -6.156266351623949e-05,
      "longitude_deg": 9.922608468400162,
      "height_km": 482.76497356879446,
      "semi_major_axis_km": 6861.174657609252,
      "eccentricity": 0.0001091,
      "inclination_deg": 43.0035,
      "raan_deg": 43.9006,
      "arg_perigee_deg": 273.7935,
      "mean_anomaly_deg": 86.2791,
      "mean_motion_rev_day": 15.2758382
    },
    {
      "epoch": "2026-05-10T18:29:55.489632Z",
      "apogee_km": 483.8915173345804,
      "perigee_km": 482.22150283422616,
      "latitude_deg": 3.280213366181484e-05,
      "longitude_deg": -109.5346011027046,
      "height_km": 482.88854516580824,
      "semi_major_axis_km": 6861.193510084403,
      "eccentricity": 0.0001217,
      "inclination_deg": 43.0045,
      "raan_deg": 36.5158,
      "arg_perigee_deg": 266.2234,
      "mean_anomaly_deg": 93.8479,
      "mean_motion_rev_day": 15.27577524
    },
    {
      "epoch": "2026-05-11T10:11:29.186304Z",
      "apogee_km": 483.87400501661796,
      "perigee_km": 482.21058070885556,
      "latitude_deg": 1.0974542208930166e-05,
      "longitude_deg": 10.738396519375355,
      "height_km": 482.84249143666455,
      "semi_major_axis_km": 6861.1792928627365,
      "eccentricity": 0.00012122,
      "inclination_deg": 43.0059,
      "raan_deg": 32.8237,
      "arg_perigee_deg": 268.4152,
      "mean_anomaly_deg": 91.6561,
      "mean_motion_rev_day": 15.27582272
    },
    {
      "epoch": "2026-05-12T09:43:50.335680Z",
      "apogee_km": 483.8756520827583,
      "perigee_km": 482.23994324299474,
      "latitude_deg": -9.010150288741145e-06,
      "longitude_deg": 11.145332024885203,
      "height_km": 482.85201357145525,
      "semi_major_axis_km": 6861.194797662876,
      "eccentricity": 0.0001192,
      "inclination_deg": 43.0061,
      "raan_deg": 27.2855,
      "arg_perigee_deg": 268.8082,
      "mean_anomaly_deg": 91.2633,
      "mean_motion_rev_day": 15.27577094
    },
    {
      "epoch": "2026-05-13T09:16:10.725600Z",
      "apogee_km": 483.77922616517844,
      "perigee_km": 482.2903518869589,
      "latitude_deg": -1.8187051840407918e-06,
      "longitude_deg": 11.556769986451672,
      "height_km": 482.88801509080133,
      "semi_major_axis_km": 6861.171789026068,
      "eccentricity": 0.0001085,
      "inclination_deg": 43.0059,
      "raan_deg": 21.7486,
      "arg_perigee_deg": 264.1288,
      "mean_anomaly_deg": 95.944,
      "mean_motion_rev_day": 15.27584778
    }
  ]
}